NORAD_CAT_ID,OBJECT_NAME,OBJECT_TYPE,EPOCH,MEAN_MOTION,ECCENTRICITY,INCLINATION,RA_OF_ASC_NODE,ARG_OF_PERICENTER,MEAN_ANOMALY,BSTAR,MEAN_MOTION_DOT,MEAN_MOTION_DDOT,TLE_LINE0,TLE_LINE1,TLE_LINE2,SEMIMAJOR_AXIS,PERIOD,APOGEE,PERIGEE,DECAYED
55787.0,STARLINK-5811,PAYLOAD,2024-02-21 13:59:59,14.98329591,0.0003078,69.9978,288.3079,270.8359,89.2448,-0.00010531,-1.349e-05,0.0,0 STARLINK-5811,1 55787U 23028AY  24052.58332769 -.00001349  00000-0 -10531-3 0  9995,2 55787  69.9978 288.3079 0003078 270.8359  89.2448 14.98329591 55119,6950.194,96.107,574.198,569.92,0.0
55787.0,STARLINK-5811,PAYLOAD,2024-02-21 20:24:31,14.98317968,0.0003139,69.9977,287.6344,270.2455,89.8344,0.00014653,1.655e-05,0.0,0 STARLINK-5811,1 55787U 23028AY  24052.85037015  .00001655  00000-0  14653-3 0  9998,2 55787  69.9977 287.6344 0003139 270.2455  89.8344 14.98317968 55143,6950.23,96.108,574.277,569.913,0.0
55787.0,STARLINK-5811,PAYLOAD,2024-02-21 22:00:39,14.98325381,0.0003169,69.9977,287.466,271.6591,88.4205,5.0394e-05,5.08e-06,0.0,0 STARLINK-5811,1 55787U 23028AY  24052.91712770  .00000508  00000-0  50394-4 0  9992,2 55787  69.9977 287.4660 0003169 271.6591  88.4205 14.98325381 55162,6950.207,96.107,574.275,569.87,0.0
55787.0,STARLINK-5811,PAYLOAD,2024-02-22 02:49:03,14.98329242,0.0003153,69.9977,286.9611,271.8965,88.1833,6.511e-05,6.84e-06,0.0,0 STARLINK-5811,1 55787U 23028AY  24053.11740501  .00000684  00000-0  65110-4 0  9995,2 55787  69.9977 286.9611 0003153 271.8965  88.1833 14.98329242 55188,6950.195,96.107,574.252,569.869,0.0
55787.0,STARLINK-5811,PAYLOAD,2024-02-22 14:02:00,14.9833137,0.0003134,69.9977,285.783,271.4732,88.6068,1.0522e-05,3.3e-07,0.0,0 STARLINK-5811,1 55787U 23028AY  24053.58472467  .00000033  00000-0  10522-4 0  9994,2 55787  69.9977 285.7830 0003134 271.4732  88.6068 14.98331370 55264,6950.189,96.107,574.232,569.875,0.0
55787.0,STARLINK-5811,PAYLOAD,2024-02-22 18:50:26,14.98290097,0.0003332,69.9976,285.2779,267.0577,93.0201,-9.9378e-05,-1.277e-05,0.0,0 STARLINK-5811,1 55787U 23028AY  24053.78503075 -.00001277  00000-0 -99378-4 0  9995,2 55787  69.9976 285.2779 0003332 267.0577  93.0201 14.98290097 55289,6950.316,96.11,574.497,569.865,0.0
55787.0,STARLINK-5811,PAYLOAD,2024-02-22 22:02:40,14.98338905,0.0003149,69.9976,284.9412,270.754,89.3258,-4.3006e-06,-1.44e-06,0.0,0 STARLINK-5811,1 55787U 23028AY  24053.91851897 -.00000144  00000-0 -43006-5 0  9998,2 55787  69.9976 284.9412 0003149 270.7540  89.3258 14.98338905 55311,6950.165,96.106,574.219,569.842,0.0
55787.0,STARLINK-5811,PAYLOAD,2024-02-23 02:51:04,14.98312217,0.0002977,69.9977,284.436,269.9546,90.1272,0.00051146,6.012e-05,0.0,0 STARLINK-5811,1 55787U 23028AY  24054.11880402  .00006012  00000-0  51146-3 0  9995,2 55787  69.9977 284.4360 0002977 269.9546  90.1272 14.98312217 55339,6950.248,96.108,574.182,570.044,0.0
55787.0,STARLINK-5811,PAYLOAD,2024-02-23 14:04:00,14.9833264,0.000333,69.9975,283.2578,274.5193,85.5586,-9.6678e-05,-1.247e-05,0.0,0 STARLINK-5811,1 55787U 23028AY  24054.58612258 -.00001247  00000-0 -96678-4 0  9995,2 55787  69.9975 283.2578 0003330 274.5193  85.5586 14.98332640 55416,6950.185,96.107,574.364,569.735,0.0
55787.0,STARLINK-5811,PAYLOAD,2024-02-23 22:04:41,14.98329236,0.0003164,69.9975,282.4159,271.4299,88.6498,4.3475e-05,4.26e-06,0.0,0 STARLINK-5811,1 55787U 23028AY  24054.91992140  .00000426  00000-0  43475-4 0  9996,2 55787  69.9975 282.4159 0003164 271.4299  88.6498 14.98329236 55468,6950.195,96.107,574.259,569.861,0.0
55787.0,STARLINK-5811,PAYLOAD,2024-02-24 01:16:57,14.98330984,0.0003187,69.9975,282.0791,272.2981,87.7814,4.9263e-05,4.95e-06,0.0,0 STARLINK-5811,1 55787U 23028AY  24055.05344020  .00000495  00000-0  49263-4 0  9997,2 55787  69.9975 282.0791 0003187 272.2981  87.7814 14.98330984 55473,6950.19,96.107,574.27,569.84,0.0
55787.0,STARLINK-5811,PAYLOAD,2024-02-24 14:06:02,14.98329214,0.0003102,69.9974,280.7326,270.8547,89.2257,-4.7013e-05,-6.54e-06,0.0,0 STARLINK-5811,1 55787U 23028AY  24055.58752337 -.00000654  00000-0 -47013-4 0  9999,2 55787  69.9974 280.7326 0003102 270.8547  89.2257 14.98329214 55562,6950.195,96.107,574.216,569.904,0.0
55787.0,STARLINK-5811,PAYLOAD,2024-02-25 01:18:58,14.98333267,0.0003104,69.9973,279.5541,270.1701,89.9102,-8.4684e-07,-1.03e-06,0.0,0 STARLINK-5811,1 55787U 23028AY  24056.05483908 -.00000103  00000-0 -84684-6 0  9993,2 55787  69.9973 279.5541 0003104 270.1701  89.9102 14.98333267 55629,6950.183,96.107,574.205,569.89,0.0
55787.0,STARLINK-5811,PAYLOAD,2024-02-25 14:08:02,14.98333485,0.0003063,69.9972,278.2074,270.56,89.5208,-7.5744e-05,-9.97e-06,0.0,0 STARLINK-5811,1 55787U 23028AY  24056.58891956 -.00000997  00000-0 -75744-4 0  9993,2 55787  69.9972 278.2074 0003063 270.5600  89.5208 14.98333485 55716,6950.182,96.107,574.176,569.918,0.0
55787.0,STARLINK-5811,PAYLOAD,2024-02-25 22:08:42,14.98331024,0.0003113,69.9971,277.3657,271.2316,88.8486,4.3145e-05,4.22e-06,0.0,0 STARLINK-5811,1 55787U 23028AY  24056.92271823  .00000422  00000-0  43145-4 0  9997,2 55787  69.9971 277.3657 0003113 271.2316  88.8486 14.98331024 55762,6950.19,96.107,574.218,569.891,0.0
55787.0,STARLINK-5811,PAYLOAD,2024-02-26 14:10:03,14.9832698,0.0002831,69.9979,275.6823,267.9341,92.1494,-3.8645e-05,-5.54e-06,0.0,0 STARLINK-5811,1 55787U 23028AY  24057.59032306 -.00000554  00000-0 -38645-4 0  9999,2 55787  69.9979 275.6823 0002831 267.9341  92.1494 14.98326980 55865,6950.202,96.107,574.035,570.1,0.0
55787.0,STARLINK-5811,PAYLOAD,2024-02-26 18:58:28,14.9832661,0.0002755,69.9982,275.1769,266.5335,93.5509,-5.1935e-05,-7.13e-06,0.0,0 STARLINK-5811,1 55787U 23028AY  24057.79060389 -.00000713  00000-0 -51935-4 0  9997,2 55787  69.9982 275.1769 0002755 266.5335  93.5509 14.98326610 55880,6950.203,96.107,573.983,570.154,0.0
55787.0,STARLINK-5811,PAYLOAD,2024-02-26 22:10:44,14.98323761,0.000275,69.9981,274.8408,268.3199,91.7645,-6.1498e-05,-8.27e-06,0.0,0 STARLINK-5811,1 55787U 23028AY  24057.92412652 -.00000827  00000-0 -61498-4 0  9997,2 55787  69.9981 274.8408 0002750 268.3199  91.7645 14.98323761 55917,6950.212,96.107,573.988,570.166,0.0
55787.0,STARLINK-5811,PAYLOAD,2024-02-27 07:47:32,14.9832711,0.0002974,69.9977,273.8302,267.8421,92.2398,-3.28e-05,-4.84e-06,0.0,0 STARLINK-5811,1 55787U 23028AY  24058.32468362 -.00000484  00000-0 -32800-4 0  9995,2 55787  69.9977 273.8302 0002974 267.8421  92.2398 14.98327110 55973,6950.202,96.107,574.134,570.0,0.0
55787.0,STARLINK-5811,PAYLOAD,2024-02-27 20:36:36,14.98330403,0.0003,69.9975,272.4836,265.0693,95.0124,-2.8837e-05,-4.37e-06,0.0,0 STARLINK-5811,1 55787U 23028AY  24058.85876157 -.00000437  00000-0 -28837-4 0  9991,2 55787  69.9975 272.4836 0003000 265.0693  95.0124 14.98330403 56046,6950.192,96.107,574.142,569.972,0.0
55787.0,STARLINK-5811,PAYLOAD,2024-02-27 22:12:45,14.98330545,0.0002931,69.9977,272.3148,266.2806,93.8017,-2.4395e-05,-3.84e-06,0.0,0 STARLINK-5811,1 55787U 23028AY  24058.92552158 -.00000384  00000-0 -24395-4 0  9997,2 55787  69.9977 272.3148 0002931 266.2806  93.8017 14.98330545 56060,6950.191,96.107,574.093,570.019,0.0
55787.0,STARLINK-5811,PAYLOAD,2024-02-28 14:14:05,14.98327911,0.0002995,69.9975,270.6316,266.5099,93.5717,6.5066e-05,6.83e-06,0.0,0 STARLINK-5811,1 55787U 23028AY  24059.59312051  .00000683  00000-0  65066-4 0  9997,2 55787  69.9975 270.6316 0002995 266.5099  93.5717 14.98327911 56161,6950.199,96.107,574.146,569.983,0.0
55787.0,STARLINK-5811,PAYLOAD,2024-02-28 20:38:37,14.98328165,0.0003002,69.9976,269.9586,266.1971,93.8844,8.2898e-05,8.96e-06,0.0,0 STARLINK-5811,1 55787U 23028AY  24059.86016004  .00000896  00000-0  82898-4 0  9994,2 55787  69.9976 269.9586 0003002 266.1971  93.8844 14.98328165 56196,6950.199,96.107,574.15,569.977,0.0
55787.0,STARLINK-5811,PAYLOAD,2024-02-28 22:14:45,14.9832838,0.0002957,69.9977,269.7903,264.8638,95.2184,7.1376e-05,7.59e-06,0.0,0 STARLINK-5811,1 55787U 23028AY  24059.92692027  .00000759  00000-0  71376-4 0  9993,2 55787  69.9977 269.7903 0002957 264.8638  95.2184 14.98328380 56216,6950.198,96.107,574.118,570.008,0.0
55787.0,STARLINK-5811,PAYLOAD,2024-02-29 14:16:06,14.9833069,0.0002989,69.9977,268.1069,267.265,92.8167,1.6133e-05,9.9e-07,0.0,0 STARLINK-5811,1 55787U 23028AY  24060.59452008  .00000099  00000-0  16133-4 0  9998,2 55787  69.9977 268.1069 0002989 267.2650  92.8167 14.98330690 56310,6950.191,96.107,574.133,569.978,0.0
55787.0,STARLINK-5811,PAYLOAD,2024-02-29 20:40:38,14.98331608,0.0003007,69.9979,267.4335,267.4245,92.657,1.5305e-06,-7.5e-07,0.0,0 STARLINK-5811,1 55787U 23028AY  24060.86155959 -.00000075  00000-0  15305-5 0  9999,2 55787  69.9979 267.4335 0003007 267.4245  92.6570 14.98331608 56343,6950.188,96.107,574.143,569.963,0.0
55787.0,STARLINK-5811,PAYLOAD,2024-02-29 22:16:46,14.98331634,0.0003011,69.998,267.2652,267.5197,92.5618,1.4624e-06,-7.6e-07,0.0,0 STARLINK-5811,1 55787U 23028AY  24060.92831950 -.00000076  00000-0  14624-5 0  9992,2 55787  69.9980 267.2652 0003011 267.5197  92.5618 14.98331634 56360,6950.188,96.107,574.146,569.96,0.0
55787.0,STARLINK-5811,PAYLOAD,2024-03-01 14:18:07,14.98330646,0.0002943,69.9983,265.5818,268.0412,92.041,-2.0813e-05,-3.41e-06,0.0,0 STARLINK-5811,1 55787U 23028AY  24061.59591997 -.00000341  00000-0 -20813-4 0  9992,2 55787  69.9983 265.5818 0002943 268.0412  92.0410 14.98330646 56465,6950.191,96.107,574.101,570.01,0.0
55787.0,STARLINK-5811,PAYLOAD,2024-03-01 22:18:47,14.98331298,0.0002933,69.9983,264.7401,268.2313,91.851,-7.3509e-06,-1.81e-06,0.0,0 STARLINK-5811,1 55787U 23028AY  24061.92971887 -.00000181  00000-0 -73509-5 0  9992,2 55787  69.9983 264.7401 0002933 268.2313  91.8510 14.98331298 56513,6950.189,96.107,574.092,570.015,0.0
55787.0,STARLINK-5811,PAYLOAD,2024-03-01 23:54:55,14.98331367,0.0002934,69.9983,264.5717,268.2858,91.7965,-6.5086e-06,-1.71e-06,0.0,0 STARLINK-5811,1 55787U 23028AY  24061.99647872 -.00000171  00000-0 -65086-5 0  9993,2 55787  69.9983 264.5717 0002934 268.2858  91.7965 14.98331367 56516,6950.189,96.107,574.093,570.014,0.0
